<?xml version="1.0" encoding="UTF-8"?>

<osm version="0.6" generator="CGImap 0.0.2">
 
 <bounds minlat="55.1196000" minlon="37.3708000" maxlat="55.1814000" maxlon="37.5074000"/>
 
 <node id="76475011" lat="55.0269826" lon="37.4271725" user="kolen" uid="73184" visible="true" version="13" changeset="813236" timestamp="2009-01-19T09:05:54Z"/>
 
 <node id="139744952" lat="54.0294985" lon="38.4277889" user="unwrecker" uid="69700" visible="true" version="7" changeset="3437942" timestamp="2009-12-23T21:29:34Z"/>
 
 <node id="12345670" lat="49.0269826" lon="40.4271725" user="kolen" uid="73184" visible="true" version="13" changeset="813236" timestamp="2009-01-19T09:05:54Z">
 
   <tag k="railway" v="level_crossing"/>
 
 </node>
 <way id="116856438" user="Dimon62" uid="457129" visible="true" version="2" changeset="8409292" timestamp="2011-06-11T19:46:13Z">
   <nd ref="76475011"/>
   
   <nd ref="139744952"/>

  
   <tag k="addr:housenumber" v="96"/>
   
   <tag k="addr:street" v="Московская улица"/>
   
   <tag k="building" v="yes"/>
  
   <tag k="name" v="KARNAVAL"/>
    
   <tag k="shop" v="mall"/>

 </way>
 <way id="116856439" user="Dimon62" uid="457129" visible="true" version="2" changeset="8409292" timestamp="2011-06-11T19:46:13Z">
   <nd ref="12345670"/>
   
   <nd ref="139744952"/>

  
   <tag k="addr:housenumber" v="95"/>
   
   <tag k="addr:street" v="Гагарина улица"/>
   
   <tag k="building" v="yes"/>
  
   <tag k="name" v="ТРЦ На Московской"/>
    
   <tag k="shop" v="mall"/>

 </way>
 <relation id="421030" user="Hind" uid="79836" visible="true" version="1" changeset="4008870" timestamp="2010-03-01T14:05:55Z">
   
   <member type="node" ref="76475011" role="a3"/>
   
   <member type="node" ref="139744952" role="label"/>
  
   <tag k="address:a2" v="Чеховский район"/>
  
   <tag k="address:type" v="a2"/>
  
   <tag k="name" v="Чеховский район"/>
  
   <tag k="type" v="address"/>
 
 </relation>
</osm>

